{"type": "FeatureCollection", "features": [ {"type": "Feature", "properties": {"norad_id": 41003, "name": "FENGYUN 1C DEB", "group": "fengyun-1c-debris", "lat": 59.17317090637801, "lon": 103.52828932580903, "alt_km": 693.4212433002876, "timestamp": "2025-12-14T20:40:32.061748+00:00", "meta": {"OBJECT_NAME": "FENGYUN 1C DEB", "OBJECT_ID": "1999-025EXH", "EPOCH": "2025-12-11T12:14:27.482784", "MEAN_MOTION": 14.72686448, "ECCENTRICITY": 0.0070582, "INCLINATION": 98.9647, "RA_OF_ASC_NODE": 264.4932, "ARG_OF_PERICENTER": 296.3478, "MEAN_ANOMALY": 63.049, "EPHEMERIS_TYPE": 0, "CLASSIFICATION_TYPE": "U", "NORAD_CAT_ID": 41003, "ELEMENT_SET_NO": 999, "REV_AT_EPOCH": 52402, "BSTAR": 0.0094626523, "MEAN_MOTION_DOT": 0.00063247, "MEAN_MOTION_DDOT": 0}, "tle": {"line1": "1 41003U 99025EXH 25345.51004031  .00063247  00000+0  94627-2 0  9997", "line2": "2 41003  98.9647 264.4932 0070582 296.3478  63.0490 14.72686448524029"}}, "geometry": {"type": "Point", "coordinates": [103.52828932580903, 59.17317090637801]}}, {"type": "Feature", "properties": {"norad_id": 41006, "name": "FENGYUN 1C DEB", "group": "fengyun-1c-debris", "lat": 48.697748980409656, "lon": -154.1354818638447, "alt_km": 843.43735998387, "timestamp": "2025-12-14T20:40:32.061759+00:00", "meta": {"OBJECT_NAME": "FENGYUN 1C DEB", "OBJECT_ID": "1999-025EXL", "EPOCH": "2025-12-12T21:38:45.983904", "MEAN_MOTION": 13.8536183, "ECCENTRICITY": 0.01900708, "INCLINATION": 102.3668, "RA_OF_ASC_NODE": 217.748, "ARG_OF_PERICENTER": 8.2798, "MEAN_ANOMALY": 352.1409, "EPHEMERIS_TYPE": 0, "CLASSIFICATION_TYPE": "U", "NORAD_CAT_ID": 41006, "ELEMENT_SET_NO": 999, "REV_AT_EPOCH": 57491, "BSTAR": 0.0039238836, "MEAN_MOTION_DOT": 5.076e-05, "MEAN_MOTION_DDOT": 0}, "tle": {"line1": "1 41006U 99025EXL 25346.90192111  .00005076  00000+0  39239-2 0  9995", "line2": "2 41006 102.3668 217.7480 0190070   8.2798 352.1409 13.85361830574917"}}, "geometry": {"type": "Point", "coordinates": [-154.1354818638447, 48.697748980409656]}}, {"type": "Feature", "properties": {"norad_id": 41007, "name": "FENGYUN 1C DEB", "group": "fengyun-1c-debris", "lat": -65.47078738797676, "lon": 173.09173729792465, "alt_km": 1060.7515059339212, "timestamp": "2025-12-14T20:40:32.061769+00:00", "meta": {"OBJECT_NAME": "FENGYUN 1C DEB", "OBJECT_ID": "1999-025EXM", "EPOCH": "2025-11-29T06:55:22.773792", "MEAN_MOTION": 13.85678237, "ECCENTRICITY": 0.01723955, "INCLINATION": 99.9731, "RA_OF_ASC_NODE": 359.205, "ARG_OF_PERICENTER": 79.2855, "MEAN_ANOMALY": 282.7657, "EPHEMERIS_TYPE": 0, "CLASSIFICATION_TYPE": "U", "NORAD_CAT_ID": 41007, "ELEMENT_SET_NO": 999, "REV_AT_EPOCH": 57212, "BSTAR": 0.0017167305, "MEAN_MOTION_DOT": 2.158e-05, "MEAN_MOTION_DDOT": 0}, "tle": {"line1": "1 41007U 99025EXM 25333.28845803  .00002158  00000+0  17167-2 0  9990", "line2": "2 41007  99.9731 359.2050 0172395  79.2855 282.7657 13.85678237572123"}}, "geometry": {"type": "Point", "coordinates": [173.09173729792465, -65.47078738797676]}}, {"type": "Feature", "properties": {"norad_id": 41011, "name": "FENGYUN 1C DEB", "group": "fengyun-1c-debris", "lat": 66.51203246702575, "lon": -124.14558234631228, "alt_km": 846.8200833180208, "timestamp": "2025-12-14T20:40:32.061779+00:00", "meta": {"OBJECT_NAME": "FENGYUN 1C DEB", "OBJECT_ID": "1999-025EXR", "EPOCH": "2025-12-13T09:13:26.824800", "MEAN_MOTION": 14.42910702, "ECCENTRICITY": 0.03100338, "INCLINATION": 99.1692, "RA_OF_ASC_NODE": 32.4443, "ARG_OF_PERICENTER": 356.2612, "MEAN_ANOMALY": 3.6261, "EPHEMERIS_TYPE": 0, "CLASSIFICATION_TYPE": "U", "NORAD_CAT_ID": 41011, "ELEMENT_SET_NO": 999, "REV_AT_EPOCH": 57166, "BSTAR": 0.00089142659, "MEAN_MOTION_DOT": 5.283e-05, "MEAN_MOTION_DDOT": 0}, "tle": {"line1": "1 41011U 99025EXR 25347.38433825  .00005283  00000+0  89143-3 0  9994", "line2": "2 41011  99.1692  32.4443 0310033 356.2612   3.6261 14.42910702571663"}}, "geometry": {"type": "Point", "coordinates": [-124.14558234631228, 66.51203246702575]}}, {"type": "Feature", "properties": {"norad_id": 41018, "name": "FENGYUN 1C DEB", "group": "fengyun-1c-debris", "lat": 74.00074199759007, "lon": 150.94301295594775, "alt_km": 833.38724001215, "timestamp": "2025-12-14T20:40:32.061789+00:00", "meta": {"OBJECT_NAME": "FENGYUN 1C DEB", "OBJECT_ID": "1999-025EXY", "EPOCH": "2025-12-13T13:59:52.761120", "MEAN_MOTION": 13.52365879, "ECCENTRICITY": 0.03047371, "INCLINATION": 99.9367, "RA_OF_ASC_NODE": 291.9743, "ARG_OF_PERICENTER": 116.5578, "MEAN_ANOMALY": 246.7133, "EPHEMERIS_TYPE": 0, "CLASSIFICATION_TYPE": "U", "NORAD_CAT_ID": 41018, "ELEMENT_SET_NO": 999, "REV_AT_EPOCH": 88186, "BSTAR": 0.0024715066, "MEAN_MOTION_DOT": 2.144e-05, "MEAN_MOTION_DDOT": 0}, "tle": {"line1": "1 41018U 99025EXY 25347.58324955  .00002144  00000+0  24715-2 0  9992", "line2": "2 41018  99.9367 291.9743 0304737 116.5578 246.7133 13.52365879881867"}}, "geometry": {"type": "Point", "coordinates": [150.94301295594775, 74.00074199759007]}}, {"type": "Feature", "properties": {"norad_id": 41822, "name": "FENGYUN 1C DEB", "group": "fengyun-1c-debris", "lat": -23.03157938399172, "lon": 58.805762302174124, "alt_km": 835.6631389983395, "timestamp": "2025-12-14T20:40:32.061800+00:00", "meta": {"OBJECT_NAME": "FENGYUN 1C DEB", "OBJECT_ID": "1999-025EXZ", "EPOCH": "2025-12-13T02:39:02.754720", "MEAN_MOTION": 14.24802982, "ECCENTRICITY": 0.00554372, "INCLINATION": 98.7324, "RA_OF_ASC_NODE": 53.318, "ARG_OF_PERICENTER": 219.4647, "MEAN_ANOMALY": 140.2488, "EPHEMERIS_TYPE": 0, "CLASSIFICATION_TYPE": "U", "NORAD_CAT_ID": 41822, "ELEMENT_SET_NO": 999, "REV_AT_EPOCH": 47378, "BSTAR": 0.0024287115, "MEAN_MOTION_DOT": 5.714e-05, "MEAN_MOTION_DDOT": 0}, "tle": {"line1": "1 41822U 99025EXZ 25347.11044855  .00005714  00000+0  24287-2 0  9992", "line2": "2 41822  98.7324  53.3180 0055437 219.4647 140.2488 14.24802982473785"}}, "geometry": {"type": "Point", "coordinates": [58.805762302174124, -23.03157938399172]}}, {"type": "Feature", "properties": {"norad_id": 41823, "name": "FENGYUN 1C DEB", "group": "fengyun-1c-debris", "lat": 37.01117311581701, "lon": 45.52348158177907, "alt_km": 849.9575617427417, "timestamp": "2025-12-14T20:40:32.061810+00:00", "meta": {"OBJECT_NAME": "FENGYUN 1C DEB", "OBJECT_ID": "1999-025EYA", "EPOCH": "2025-12-14T03:37:44.817024", "MEAN_MOTION": 14.23532073, "ECCENTRICITY": 0.00547165, "INCLINATION": 98.7214, "RA_OF_ASC_NODE": 51.4646, "ARG_OF_PERICENTER": 224.1085, "MEAN_ANOMALY": 135.5723, "EPHEMERIS_TYPE": 0, "CLASSIFICATION_TYPE": "U", "NORAD_CAT_ID": 41823, "ELEMENT_SET_NO": 999, "REV_AT_EPOCH": 47378, "BSTAR": 0.0016754486, "MEAN_MOTION_DOT": 3.829e-05, "MEAN_MOTION_DDOT": 0}, "tle": {"line1": "1 41823U 99025EYA 25348.15121316  .00003829  00000+0  16754-2 0  9991", "line2": "2 41823  98.7214  51.4646 0054716 224.1085 135.5723 14.23532073473787"}}, "geometry": {"type": "Point", "coordinates": [45.52348158177907, 37.01117311581701]}}, {"type": "Feature", "properties": {"norad_id": 41824, "name": "FENGYUN 1C DEB", "group": "fengyun-1c-debris", "lat": -81.04892964624806, "lon": 155.52008238363362, "alt_km": 790.1957971477377, "timestamp": "2025-12-14T20:40:32.061819+00:00", "meta": {"OBJECT_NAME": "FENGYUN 1C DEB", "OBJECT_ID": "1999-025EYB", "EPOCH": "2025-12-12T21:53:41.923392", "MEAN_MOTION": 14.24166073, "ECCENTRICITY": 0.00574087, "INCLINATION": 98.7318, "RA_OF_ASC_NODE": 50.9372, "ARG_OF_PERICENTER": 226.8452, "MEAN_ANOMALY": 132.792, "EPHEMERIS_TYPE": 0, "CLASSIFICATION_TYPE": "U", "NORAD_CAT_ID": 41824, "ELEMENT_SET_NO": 999, "REV_AT_EPOCH": 47362, "BSTAR": 0.0024130782, "MEAN_MOTION_DOT": 5.613e-05, "MEAN_MOTION_DDOT": 0}, "tle": {"line1": "1 41824U 99025EYB 25346.91229078  .00005613  00000+0  24131-2 0  9999", "line2": "2 41824  98.7318  50.9372 0057408 226.8452 132.7920 14.24166073473626"}}, "geometry": {"type": "Point", "coordinates": [155.52008238363362, -81.04892964624806]}}, {"type": "Feature", "properties": {"norad_id": 41825, "name": "FENGYUN 1C DEB", "group": "fengyun-1c-debris", "lat": 42.0870796348584, "lon": -114.12688629098704, "alt_km": 795.8262901896469, "timestamp": "2025-12-14T20:40:32.061830+00:00", "meta": {"OBJECT_NAME": "FENGYUN 1C DEB", "OBJECT_ID": "1999-025EYC", "EPOCH": "2025-12-13T03:35:17.050560", "MEAN_MOTION": 14.25096254, "ECCENTRICITY": 0.0055989, "INCLINATION": 98.7431, "RA_OF_ASC_NODE": 56.1785, "ARG_OF_PERICENTER": 219.8519, "MEAN_ANOMALY": 139.8543, "EPHEMERIS_TYPE": 0, "CLASSIFICATION_TYPE": "U", "NORAD_CAT_ID": 41825, "ELEMENT_SET_NO": 999, "REV_AT_EPOCH": 47354, "BSTAR": 0.0024270125, "MEAN_MOTION_DOT": 5.744e-05, "MEAN_MOTION_DDOT": 0}, "tle": {"line1": "1 41825U 99025EYC 25347.14950290  .00005744  00000+0  24270-2 0  9992", "line2": "2 41825  98.7431  56.1785 0055989 219.8519 139.8543 14.25096254473541"}}, "geometry": {"type": "Point", "coordinates": [-114.12688629098704, 42.0870796348584]}}, {"type": "Feature", "properties": {"norad_id": 41826, "name": "FENGYUN 1C DEB", "group": "fengyun-1c-debris", "lat": 77.57728285939523, "lon": -81.10510335781443, "alt_km": 824.4068998036973, "timestamp": "2025-12-14T20:40:32.061840+00:00", "meta": {"OBJECT_NAME": "FENGYUN 1C DEB", "OBJECT_ID": "1999-025EYD", "EPOCH": "2025-12-13T15:32:08.640672", "MEAN_MOTION": 14.23756953, "ECCENTRICITY": 0.00558823, "INCLINATION": 98.7336, "RA_OF_ASC_NODE": 53.4355, "ARG_OF_PERICENTER": 220.9704, "MEAN_ANOMALY": 138.7269, "EPHEMERIS_TYPE": 0, "CLASSIFICATION_TYPE": "U", "NORAD_CAT_ID": 41826, "ELEMENT_SET_NO": 999, "REV_AT_EPOCH": 47373, "BSTAR": 0.0018336378, "MEAN_MOTION_DOT": 4.216e-05, "MEAN_MOTION_DDOT": 0}, "tle": {"line1": "1 41826U 99025EYD 25347.64732223  .00004216  00000+0  18336-2 0  9991", "line2": "2 41826  98.7336  53.4355 0055882 220.9704 138.7269 14.23756953473731"}}, "geometry": {"type": "Point", "coordinates": [-81.10510335781443, 77.57728285939523]}}]}